[{"OBJECT_NAME":"GLOBALSTAR M096","OBJECT_ID":"2013-005D","EPOCH":"2026-03-03T04:49:24.215808","MEAN_MOTION":12.62263281,"ECCENTRICITY":8.92e-5,"INCLINATION":52.0066,"RA_OF_ASC_NODE":162.2129,"ARG_OF_PERICENTER":108.7396,"MEAN_ANOMALY":251.3568,"EPHEMERIS_TYPE":0,"CLASSIFICATION_TYPE":"U","NORAD_CAT_ID":39075,"ELEMENT_SET_NO":999,"REV_AT_EPOCH":60400,"BSTAR":7.3628e-6,"MEAN_MOTION_DOT":-1.02e-6,"MEAN_MOTION_DDOT":0},{"OBJECT_NAME":"GLOBALSTAR M078","OBJECT_ID":"2013-005E","EPOCH":"2026-03-02T16:46:58.456416","MEAN_MOTION":12.62275893,"ECCENTRICITY":0.00014932,"INCLINATION":51.9851,"RA_OF_ASC_NODE":247.8979,"ARG_OF_PERICENTER":61.0466,"MEAN_ANOMALY":299.055,"EPHEMERIS_TYPE":0,"CLASSIFICATION_TYPE":"U","NORAD_CAT_ID":39076,"ELEMENT_SET_NO":999,"REV_AT_EPOCH":60256,"BSTAR":4.2442407e-5,"MEAN_MOTION_DOT":-9.6e-7,"MEAN_MOTION_DDOT":0},{"OBJECT_NAME":"GLOBALSTAR M095","OBJECT_ID":"2013-005F","EPOCH":"2026-03-02T21:13:20.812224","MEAN_MOTION":12.62276139,"ECCENTRICITY":0.0001366,"INCLINATION":52.006,"RA_OF_ASC_NODE":244.7887,"ARG_OF_PERICENTER":84.355,"MEAN_ANOMALY":275.7472,"EPHEMERIS_TYPE":0,"CLASSIFICATION_TYPE":"U","NORAD_CAT_ID":39077,"ELEMENT_SET_NO":999,"REV_AT_EPOCH":60244,"BSTAR":3.5882e-5,"MEAN_MOTION_DOT":-9.7e-7,"MEAN_MOTION_DDOT":0},{"OBJECT_NAME":"GLOBALSTAR M087","OBJECT_ID":"2022-064A","EPOCH":"2026-03-03T01:20:35.678400","MEAN_MOTION":12.62266769,"ECCENTRICITY":6.6e-5,"INCLINATION":52.0018,"RA_OF_ASC_NODE":25.5635,"ARG_OF_PERICENTER":84.9139,"MEAN_ANOMALY":275.1803,"EPHEMERIS_TYPE":0,"CLASSIFICATION_TYPE":"U","NORAD_CAT_ID":52888,"ELEMENT_SET_NO":999,"REV_AT_EPOCH":17773,"BSTAR":-9.7079e-6,"MEAN_MOTION_DOT":-1.06e-6,"MEAN_MOTION_DDOT":0}]
