GLOBALSTAR M096         
1 39075U 13005D   26062.20097472 -.00000102  00000+0  73628-5 0  9994
2 39075  52.0066 162.2129 0000892 108.7396 251.3568 12.62263281604004
GLOBALSTAR M078         
1 39076U 13005E   26061.69928769 -.00000096  00000+0  42442-4 0  9990
2 39076  51.9851 247.8979 0001493  61.0466 299.0550 12.62275893602566
GLOBALSTAR M095         
1 39077U 13005F   26061.88426866 -.00000097  00000+0  35882-4 0  9994
2 39077  52.0060 244.7887 0001366  84.3550 275.7472 12.62276139602441
GLOBALSTAR M087         
1 52888U 22064A   26062.05596850 -.00000106  00000+0 -97079-5 0  9994
2 52888  52.0018  25.5635 0000660  84.9139 275.1803 12.62266769177739
